BEESAT                  
1 35933U 09051C   17345.88460704  .00000149  00000-0  44714-4 0  9993
2 35933  98.5230 129.2739 0006958  81.6468 278.5518 14.56207915436285
